IRIDIUM 63              
1 25286U 98021B   25355.05431772  .00000299  00000+0  94793-4 0  9997
2 25286  86.3979   3.7248 0002353  86.3310 273.8157 14.36741791450673
IRIDIUM 69              
1 25319U 98026A   25355.11593301  .00000313  00000+0  90810-4 0  9996
2 25319  86.3971  16.3969 0004434 110.1592 250.0085 14.41223845449982
IRIDIUM 71              
1 25320U 98026B   25355.31040257  .00000254  00000+0  72227-4 0  9993
2 25320  86.3971  10.9866 0002817 139.2232 220.9179 14.41322765450541
IRIDIUM 73              
1 25344U 98032C   25354.91082858  .00000463  00000+0  10964-3 0  9995
2 25344  86.4411 327.5158 0003014  87.0748 273.0803 14.51999734457659
IRIDIUM 82              
1 25467U 98051A   25355.12190767  .00032129  00000+0  58775-3 0  9991
2 25467  86.3596  16.8859 0058299 301.6790  57.8790 15.47277423452693
